start=new Date('%Y-%m-57T00:00:00.000Z').valueOf();
sats=[{"LAUNCH_DATE":"2020-01-29","DECAY_DATE":null,"MEAN_ELEMENT_THEORY":"SGP4","OBJECT_NAME":"STARLINK-1132","BSTAR":"-0.00003309600000","ARG_OF_PERICENTER":"64.5958","NORAD_CAT_ID":"45044","INCLINATION":"53.0551","ELEMENT_SET_NO":"999","RCS_SIZE":"LARGE","MEAN_MOTION_DOT":"-0.00000775","REV_AT_EPOCH":"8636","CLASSIFICATION_TYPE":"U","ECCENTRICITY":"0.00015560","CENTER_NAME":"EARTH","MEAN_MOTION":"15.06403288","TIME_SYSTEM":"UTC","GP_ID":"183185006","PERIOD":"95.592","RA_OF_ASC_NODE":"163.8781","SEMIMAJOR_AXIS":"6925.338","REF_FRAME":"TEME","PERIAPSIS":"546.126","FILE":"3100831","APOAPSIS":"548.281","OBJECT_ID":"2020-006A","EPHEMERIS_TYPE":"0","TLE_LINE2":"2 45044  53.0551 163.8781 0001556  64.5958 295.5192 15.06403288 86369","MEAN_ANOMALY":"295.5192","MEAN_MOTION_DDOT":"0.0000000000000","SITE":"AFETR","OBJECT_TYPE":"PAYLOAD","TLE_LINE1":"1 45044U 20006A   21233.52583573 -.00000775  00000-0 -33096-4 0  9990","EPOCH":"2021-08-21T12:37:12.207072","COUNTRY_CODE":"US"},{"REV_AT_EPOCH":"8604","RCS_SIZE":"LARGE","MEAN_MOTION_DOT":"0.00001019","ELEMENT_SET_NO":"999","INCLINATION":"53.0536","NORAD_CAT_ID":"45045","ARG_OF_PERICENTER":"46.9652","BSTAR":"0.00008731200000","OBJECT_NAME":"STARLINK-1120","MEAN_ELEMENT_THEORY":"SGP4","DECAY_DATE":null,"LAUNCH_DATE":"2020-01-29","COUNTRY_CODE":"US","EPOCH":"2021-08-21T05:56:30.609600","TLE_LINE1":"1 45045U 20006B   21233.24757650  .00001019  00000-0  87312-4 0  9999","SITE":"AFETR","OBJECT_TYPE":"PAYLOAD","MEAN_MOTION_DDOT":"0.0000000000000","MEAN_ANOMALY":"313.1453","TLE_LINE2":"2 45045  53.0536 185.1292 0001382  46.9652 313.1453 15.06393322 86048","EPHEMERIS_TYPE":"0","OBJECT_ID":"2020-006B","FILE":"3100831","APOAPSIS":"548.191","PERIAPSIS":"546.277","REF_FRAME":"TEME","SEMIMAJOR_AXIS":"6925.369","PERIOD":"95.593","RA_OF_ASC_NODE":"185.1292","GP_ID":"183184757","MEAN_MOTION":"15.06393322","TIME_SYSTEM":"UTC","CENTER_NAME":"EARTH","ECCENTRICITY":"0.00013820","CLASSIFICATION_TYPE":"U"},{"GP_ID":"183183505","CLASSIFICATION_TYPE":"U","MEAN_MOTION":"15.07561232","TIME_SYSTEM":"UTC","CENTER_NAME":"EARTH","ECCENTRICITY":"0.00013860","REF_FRAME":"TEME","SEMIMAJOR_AXIS":"6921.792","PERIOD":"95.519","RA_OF_ASC_NODE":"182.2268","TLE_LINE2":"2 45046  52.9977 182.2268 0001386  68.5600 291.5536 15.07561232 86076","EPHEMERIS_TYPE":"0","MEAN_ANOMALY":"291.5536","PERIAPSIS":"542.697","OBJECT_ID":"2020-006C","FILE":"3100831","APOAPSIS":"544.616","EPOCH":"2021-08-21T08:34:21.991008","TLE_LINE1":"1 45046U 20006C   21233.35719897  .00002087  00000-0  15424-3 0  9993","COUNTRY_CODE":"US","MEAN_MOTION_DDOT":"0.0000000000000","SITE":"AFETR","OBJECT_TYPE":"PAYLOAD","DECAY_DATE":null,"LAUNCH_DATE":"2020-01-29","ARG_OF_PERICENTER":"68.5600","MEAN_ELEMENT_THEORY":"SGP4","OBJECT_NAME":"STARLINK-1129","BSTAR":"0.00015424000000","RCS_SIZE":"LARGE","MEAN_MOTION_DOT":"0.00002087","INCLINATION":"52.9977","NORAD_CAT_ID":"45046","ELEMENT_SET_NO":"999","REV_AT_EPOCH":"8607"},{"SEMIMAJOR_AXIS":"6925.370","REF_FRAME":"TEME","RA_OF_ASC_NODE":"184.5170","PERIOD":"95.593","GP_ID":"183184255","CLASSIFICATION_TYPE":"U","CENTER_NAME":"EARTH","ECCENTRICITY":"0.00014500","MEAN_MOTION":"15.06392930","TIME_SYSTEM":"UTC","TLE_LINE1":"1 45047U 20006D   21233.38392422 -.00000777  00000-0 -33261-4 0  9994","EPOCH":"2021-08-21T09:12:51.052608","COUNTRY_CODE":"US","MEAN_MOTION_DDOT":"0.0000000000000","SITE":"AFETR","OBJECT_TYPE":"PAYLOAD","EPHEMERIS_TYPE":"0","TLE_LINE2":"2 45047  53.0558 184.5170 0001450  60.1142 299.9991 15.06392930 86064","MEAN_ANOMALY":"299.9991","PERIAPSIS":"546.231","FILE":"3100831","APOAPSIS":"548.239","OBJECT_ID":"2020-006D","ARG_OF_PERICENTER":"60.1142","MEAN_ELEMENT_THEORY":"SGP4","OBJECT_NAME":"STARLINK-1131","BSTAR":"-0.00003326100000","DECAY_DATE":null,"LAUNCH_DATE":"2020-01-29","REV_AT_EPOCH":"8606","RCS_SIZE":"LARGE","MEAN_MOTION_DOT":"-0.00000777","NORAD_CAT_ID":"45047","INCLINATION":"53.0558","ELEMENT_SET_NO":"999"},{"BSTAR":"0.00005638000000","OBJECT_NAME":"STARLINK-1134","MEAN_ELEMENT_THEORY":"SGP4","ARG_OF_PERICENTER":"62.4648","LAUNCH_DATE":"2020-01-29","DECAY_DATE":null,"REV_AT_EPOCH":"8604","ELEMENT_SET_NO":"999","NORAD_CAT_ID":"45048","INCLINATION":"53.0553","MEAN_MOTION_DOT":"0.00000558","RCS_SIZE":"LARGE","PERIOD":"95.592","RA_OF_ASC_NODE":"185.0740","SEMIMAJOR_AXIS":"6925.365","REF_FRAME":"TEME","CENTER_NAME":"EARTH","ECCENTRICITY":"0.00013260","MEAN_MOTION":"15.06394678","TIME_SYSTEM":"UTC","CLASSIFICATION_TYPE":"U","GP_ID":"183184507","SITE":"AFETR","OBJECT_TYPE":"PAYLOAD","MEAN_MOTION_DDOT":"0.0000000000000","COUNTRY_CODE":"US","TLE_LINE1":"1 45048U 20006E   21233.25860473  .00000558  00000-0  56380-4 0  9999","EPOCH":"2021-08-21T06:12:23.448672","FILE":"3100831","APOAPSIS":"548.148","OBJECT_ID":"2020-006E","PERIAPSIS":"546.312","MEAN_ANOMALY":"297.6475","EPHEMERIS_TYPE":"0","TLE_LINE2":"2 45048  53.0553 185.0740 0001326  62.4648 297.6475 15.06394678 86048"},{"CLASSIFICATION_TYPE":"U","MEAN_MOTION":"15.06402221","TIME_SYSTEM":"UTC","CENTER_NAME":"EARTH","ECCENTRICITY":"0.00015260","GP_ID":"183185257","RA_OF_ASC_NODE":"184.4685","PERIOD":"95.592","REF_FRAME":"TEME","SEMIMAJOR_AXIS":"6925.342","PERIAPSIS":"546.150","OBJECT_ID":"2020-006F","FILE":"3100831","APOAPSIS":"548.264","TLE_LINE2":"2 45049  53.0541 184.4685 0001526  54.8150 305.2981 15.06402221 86066","EPHEMERIS_TYPE":"0","MEAN_ANOMALY":"305.2981","MEAN_MOTION_DDOT":"0.0000000000000","SITE":"AFETR","OBJECT_TYPE":"PAYLOAD","EPOCH":"2021-08-21T09:28:46.371360","TLE_LINE1":"1 45049U 20006F   21233.39498115  .00000930  00000-0  81312-4 0  9992","COUNTRY_CODE":"US","LAUNCH_DATE":"2020-01-29","DECAY_DATE":null,"MEAN_ELEMENT_THEORY":"SGP4","BSTAR":"0.00008131200000","OBJECT_NAME":"STARLINK-1135","ARG_OF_PERICENTER":"54.8150","INCLINATION":"53.0541","NORAD_CAT_ID":"45049","ELEMENT_SET_NO":"999","RCS_SIZE":"LARGE","MEAN_MOTION_DOT":"0.00000930","REV_AT_EPOCH":"8606"},{"REF_FRAME":"TEME","SEMIMAJOR_AXIS":"6925.358","RA_OF_ASC_NODE":"185.0359","PERIOD":"95.592","GP_ID":"183184005","MEAN_MOTION":"15.06397075","TIME_SYSTEM":"UTC","CENTER_NAME":"EARTH","ECCENTRICITY":"0.00011870","CLASSIFICATION_TYPE":"U","COUNTRY_CODE":"US","EPOCH":"2021-08-21T06:28:19.102656","TLE_LINE1":"1 45050U 20006G   21233.26966554  .00000876  00000-0  77665-4 0  9992","SITE":"AFETR","OBJECT_TYPE":"PAYLOAD","MEAN_MOTION_DDOT":"0.0000000000000","MEAN_ANOMALY":"304.2665","TLE_LINE2":"2 45050  53.0554 185.0359 0001187  55.8436 304.2665 15.06397075 86044","EPHEMERIS_TYPE":"0","OBJECT_ID":"2020-006G","APOAPSIS":"548.045","FILE":"3100831","PERIAPSIS":"546.400","ARG_OF_PERICENTER":"55.8436","OBJECT_NAME":"STARLINK-1140","BSTAR":"0.00007766500000","MEAN_ELEMENT_THEORY":"SGP4","DECAY_DATE":null,"LAUNCH_DATE":"2020-01-29","REV_AT_EPOCH":"8604","MEAN_MOTION_DOT":"0.00000876","RCS_SIZE":"LARGE","ELEMENT_SET_NO":"999","INCLINATION":"53.0554","NORAD_CAT_ID":"45050"},{"PERIOD":"95.592","RA_OF_ASC_NODE":"184.4497","REF_FRAME":"TEME","SEMIMAJOR_AXIS":"6925.325","CLASSIFICATION_TYPE":"U","MEAN_MOTION":"15.06407668","TIME_SYSTEM":"UTC","CENTER_NAME":"EARTH","ECCENTRICITY":"0.00014400","GP_ID":"183183756","MEAN_MOTION_DDOT":"0.0000000000000","SITE":"AFETR","OBJECT_TYPE":"PAYLOAD","TLE_LINE1":"1 45051U 20006H   21233.39867659  .00000690  00000-0  65232-4 0  9994","EPOCH":"2021-08-21T09:34:05.657376","COUNTRY_CODE":"US","PERIAPSIS":"546.193","OBJECT_ID":"2020-006H","FILE":"3100831","APOAPSIS":"548.187","TLE_LINE2":"2 45051  53.0533 184.4497 0001440  45.6168 314.4939 15.06407668 86068","EPHEMERIS_TYPE":"0","MEAN_ANOMALY":"314.4939","MEAN_ELEMENT_THEORY":"SGP4","OBJECT_NAME":"STARLINK-1141","BSTAR":"0.00006523200000","ARG_OF_PERICENTER":"45.6168","LAUNCH_DATE":"2020-01-29","DECAY_DATE":null,"REV_AT_EPOCH":"8606","INCLINATION":"53.0533","NORAD_CAT_ID":"45051","ELEMENT_SET_NO":"999","MEAN_MOTION_DOT":"0.00000690","RCS_SIZE":"LARGE"},{"DECAY_DATE":null,"LAUNCH_DATE":"2020-01-29","ARG_OF_PERICENTER":"39.9008","OBJECT_NAME":"STARLINK-1148","BSTAR":"0.00007189100000","MEAN_ELEMENT_THEORY":"SGP4","MEAN_MOTION_DOT":"0.00000789","RCS_SIZE":"LARGE","ELEMENT_SET_NO":"999","INCLINATION":"53.0553","NORAD_CAT_ID":"45052","REV_AT_EPOCH":"8604","GP_ID":"183185007","TIME_SYSTEM":"UTC","MEAN_MOTION":"15.06400608","CENTER_NAME":"EARTH","ECCENTRICITY":"0.00015050","CLASSIFICATION_TYPE":"U","REF_FRAME":"TEME","SEMIMAJOR_AXIS":"6925.347","PERIOD":"95.592","RA_OF_ASC_NODE":"185.0013","MEAN_ANOMALY":"320.2092","TLE_LINE2":"2 45052  53.0553 185.0013 0001505  39.9008 320.2092 15.06400608 86043","EPHEMERIS_TYPE":"0","OBJECT_ID":"2020-006J","APOAPSIS":"548.254","FILE":"3100831","PERIAPSIS":"546.169","COUNTRY_CODE":"US","EPOCH":"2021-08-21T06:38:56.077152","TLE_LINE1":"1 45052U 20006J   21233.27703793  .00000789  00000-0  71891-4 0  9997","SITE":"AFETR","OBJECT_TYPE":"PAYLOAD","MEAN_MOTION_DDOT":"0.0000000000000"},{"BSTAR":"0.00016506000000","OBJECT_NAME":"STARLINK-1155","MEAN_ELEMENT_THEORY":"SGP4","ARG_OF_PERICENTER":"26.4201","LAUNCH_DATE":"2020-01-29","DECAY_DATE":null,"REV_AT_EPOCH":"8605","ELEMENT_SET_NO":"999","INCLINATION":"52.9997","NORAD_CAT_ID":"45053","RCS_SIZE":"LARGE","MEAN_MOTION_DOT":"0.00002200","RA_OF_ASC_NODE":"183.7839","PERIOD":"95.570","REF_FRAME":"TEME","SEMIMAJOR_AXIS":"6924.269","TIME_SYSTEM":"UTC","MEAN_MOTION":"15.06752203","ECCENTRICITY":"0.00016900","CENTER_NAME":"EARTH","CLASSIFICATION_TYPE":"U","GP_ID":"183184758","OBJECT_TYPE":"PAYLOAD","SITE":"AFETR","MEAN_MOTION_DDOT":"0.0000000000000","COUNTRY_CODE":"US","EPOCH":"2021-08-21T07:55:45.976800","TLE_LINE1":"1 45053U 20006K   21233.33039325  .00002200  00000-0  16506-3 0  9999","OBJECT_ID":"2020-006K","APOAPSIS":"547.305","FILE":"3100831","PERIAPSIS":"544.964","MEAN_ANOMALY":"333.6874","TLE_LINE2":"2 45053  52.9997 183.7839 0001690  26.4201 333.6874 15.06752203 86054","EPHEMERIS_TYPE":"0"}];
